{
  "type": "FeatureCollection",
  "features": [
    {
      "type": "Feature",
      "properties": {
        "norad_id": 41866,
        "name": "GOES 16",
        "group": "weather",
        "lat": 0.004446164914995957,
        "lon": -98.9915342767719,
        "alt_km": 35772.19624139171,
        "timestamp": "2025-12-11T18:59:45.708398+00:00",
        "meta_object_name": "GOES 16",
        "meta_object_id": "2016-071A",
        "meta_epoch": "2025-12-11T05:00:38.584224",
        "meta_mean_motion": 1.00271355,
        "meta_eccentricity": 0.00033103,
        "meta_inclination": 0.0662,
        "meta_ra_of_asc_node": 103.7477,
        "meta_arg_of_pericenter": 158.2336,
        "meta_mean_anomaly": 148.679,
        "meta_ephemeris_type": 0,
        "meta_classification_type": "U",
        "meta_norad_cat_id": 41866,
        "meta_element_set_no": 999,
        "meta_rev_at_epoch": 3321,
        "meta_bstar": 0,
        "meta_mean_motion_dot": -8.5e-07,
        "meta_mean_motion_ddot": 0,
        "tle_line1": "1 41866U 16071A   25345.20877991 -.00000085  00000+0  00000+0 0  9994",
        "tle_line2": "2 41866   0.0662 103.7477 0003310 158.2336 148.6790  1.00271355 33213"
      },
      "geometry": {
        "type": "Point",
        "coordinates": [
          -98.9915342767719,
          0.004446164914995957
        ]
      }
    },
    {
      "type": "Feature",
      "properties": {
        "norad_id": 41882,
        "name": "FENGYUN 4A",
        "group": "weather",
        "lat": 1.3620872996985143,
        "lon": 129.44772589802648,
        "alt_km": 35789.68726358942,
        "timestamp": "2025-12-11T18:59:45.708410+00:00",
        "meta_object_name": "FENGYUN 4A",
        "meta_object_id": "2016-077A",
        "meta_epoch": "2025-12-10T22:41:30.995232",
        "meta_mean_motion": 1.00270325,
        "meta_eccentricity": 0.00049475,
        "meta_inclination": 1.8448,
        "meta_ra_of_asc_node": 82.3997,
        "meta_arg_of_pericenter": 145.8044,
        "meta_mean_anomaly": 315.9271,
        "meta_ephemeris_type": 0,
        "meta_classification_type": "U",
        "meta_norad_cat_id": 41882,
        "meta_element_set_no": 999,
        "meta_rev_at_epoch": 3304,
        "meta_bstar": 0,
        "meta_mean_motion_dot": -3.51e-06,
        "meta_mean_motion_ddot": 0,
        "tle_line1": "1 41882U 16077A   25344.94549763 -.00000351  00000+0  00000+0 0  9997",
        "tle_line2": "2 41882   1.8448  82.3997 0004947 145.8044 315.9271  1.00270325 33046"
      },
      "geometry": {
        "type": "Point",
        "coordinates": [
          129.44772589802648,
          1.3620872996985143
        ]
      }
    },
    {
      "type": "Feature",
      "properties": {
        "norad_id": 41884,
        "name": "CYGFM05",
        "group": "weather",
        "lat": 32.492849725761744,
        "lon": 167.5992154897704,
        "alt_km": 414.83725823780605,
        "timestamp": "2025-12-11T18:59:45.708422+00:00",
        "meta_object_name": "CYGFM05",
        "meta_object_id": "2016-078A",
        "meta_epoch": "2025-12-11T06:08:09.962304",
        "meta_mean_motion": 15.47551174,
        "meta_eccentricity": 0.00099638,
        "meta_inclination": 34.9599,
        "meta_ra_of_asc_node": 56.8244,
        "meta_arg_of_pericenter": 169.9155,
        "meta_mean_anomaly": 190.1768,
        "meta_ephemeris_type": 0,
        "meta_classification_type": "U",
        "meta_norad_cat_id": 41884,
        "meta_element_set_no": 999,
        "meta_rev_at_epoch": 49953,
        "meta_bstar": 0.00060955396,
        "meta_mean_motion_dot": 0.00032476,
        "meta_mean_motion_ddot": 0,
        "tle_line1": "1 41884U 16078A   25345.25567086  .00032476  00000+0  60955-3 0  9994",
        "tle_line2": "2 41884  34.9599  56.8244 0009963 169.9155 190.1768 15.47551174499530"
      },
      "geometry": {
        "type": "Point",
        "coordinates": [
          167.5992154897704,
          32.492849725761744
        ]
      }
    },
    {
      "type": "Feature",
      "properties": {
        "norad_id": 41885,
        "name": "CYGFM04",
        "group": "weather",
        "lat": -11.079097095652232,
        "lon": 11.837652407414392,
        "alt_km": 420.7805020697024,
        "timestamp": "2025-12-11T18:59:45.708433+00:00",
        "meta_object_name": "CYGFM04",
        "meta_object_id": "2016-078B",
        "meta_epoch": "2025-12-11T05:10:15.261024",
        "meta_mean_motion": 15.50253056,
        "meta_eccentricity": 0.0009303,
        "meta_inclination": 34.9353,
        "meta_ra_of_asc_node": 31.908,
        "meta_arg_of_pericenter": 196.8929,
        "meta_mean_anomaly": 163.1484,
        "meta_ephemeris_type": 0,
        "meta_classification_type": "U",
        "meta_norad_cat_id": 41885,
        "meta_element_set_no": 999,
        "meta_rev_at_epoch": 49970,
        "meta_bstar": 0.00052472837,
        "meta_mean_motion_dot": 0.00030733,
        "meta_mean_motion_ddot": 0,
        "tle_line1": "1 41885U 16078B   25345.21545441  .00030733  00000+0  52473-3 0  9992",
        "tle_line2": "2 41885  34.9353  31.9080 0009303 196.8929 163.1484 15.50253056499703"
      },
      "geometry": {
        "type": "Point",
        "coordinates": [
          11.837652407414392,
          -11.079097095652232
        ]
      }
    },
    {
      "type": "Feature",
      "properties": {
        "norad_id": 41886,
        "name": "CYGFM02",
        "group": "weather",
        "lat": -6.444834043540421,
        "lon": 17.15787040221138,
        "alt_km": 417.760210139465,
        "timestamp": "2025-12-11T18:59:45.708443+00:00",
        "meta_object_name": "CYGFM02",
        "meta_object_id": "2016-078C",
        "meta_epoch": "2025-12-11T05:08:50.924256",
        "meta_mean_motion": 15.51625052,
        "meta_eccentricity": 0.00109623,
        "meta_inclination": 34.9444,
        "meta_ra_of_asc_node": 30.2604,
        "meta_arg_of_pericenter": 196.6224,
        "meta_mean_anomaly": 163.4141,
        "meta_ephemeris_type": 0,
        "meta_classification_type": "U",
        "meta_norad_cat_id": 41886,
        "meta_element_set_no": 999,
        "meta_rev_at_epoch": 49983,
        "meta_bstar": 0.0005384165,
        "meta_mean_motion_dot": 0.00033157,
        "meta_mean_motion_ddot": 0,
        "tle_line1": "1 41886U 16078C   25345.21447829  .00033157  00000+0  53842-3 0  9998",
        "tle_line2": "2 41886  34.9444  30.2604 0010962 196.6224 163.4141 15.51625052499835"
      },
      "geometry": {
        "type": "Point",
        "coordinates": [
          17.15787040221138,
          -6.444834043540421
        ]
      }
    },
    {
      "type": "Feature",
      "properties": {
        "norad_id": 41887,
        "name": "CYGFM01",
        "group": "weather",
        "lat": 15.260891392516777,
        "lon": -147.32023591758966,
        "alt_km": 412.5583409786632,
        "timestamp": "2025-12-11T18:59:45.708454+00:00",
        "meta_object_name": "CYGFM01",
        "meta_object_id": "2016-078D",
        "meta_epoch": "2025-12-11T05:57:34.031520",
        "meta_mean_motion": 15.48126644,
        "meta_eccentricity": 0.00094785,
        "meta_inclination": 34.943,
        "meta_ra_of_asc_node": 59.2328,
        "meta_arg_of_pericenter": 161.5007,
        "meta_mean_anomaly": 198.606,
        "meta_ephemeris_type": 0,
        "meta_classification_type": "U",
        "meta_norad_cat_id": 41887,
        "meta_element_set_no": 999,
        "meta_rev_at_epoch": 49947,
        "meta_bstar": 0.00060343353,
        "meta_mean_motion_dot": 0.000328,
        "meta_mean_motion_ddot": 0,
        "tle_line1": "1 41887U 16078D   25345.24831055  .00032800  00000+0  60343-3 0  9998",
        "tle_line2": "2 41887  34.9430  59.2328 0009478 161.5007 198.6060 15.48126644499474"
      },
      "geometry": {
        "type": "Point",
        "coordinates": [
          -147.32023591758966,
          15.260891392516777
        ]
      }
    },
    {
      "type": "Feature",
      "properties": {
        "norad_id": 41888,
        "name": "CYGFM08",
        "group": "weather",
        "lat": -9.609752260555268,
        "lon": -127.28367240165781,
        "alt_km": 410.9550483590301,
        "timestamp": "2025-12-11T18:59:45.708466+00:00",
        "meta_object_name": "CYGFM08",
        "meta_object_id": "2016-078E",
        "meta_epoch": "2025-12-11T05:46:45.043104",
        "meta_mean_motion": 15.49326048,
        "meta_eccentricity": 0.00113848,
        "meta_inclination": 34.9462,
        "meta_ra_of_asc_node": 42.2916,
        "meta_arg_of_pericenter": 185.3596,
        "meta_mean_anomaly": 174.7005,
        "meta_ephemeris_type": 0,
        "meta_classification_type": "U",
        "meta_norad_cat_id": 41888,
        "meta_element_set_no": 999,
        "meta_rev_at_epoch": 49970,
        "meta_bstar": 0.00059885656,
        "meta_mean_motion_dot": 0.00033988,
        "meta_mean_motion_ddot": 0,
        "tle_line1": "1 41888U 16078E   25345.24079911  .00033988  00000+0  59886-3 0  9992",
        "tle_line2": "2 41888  34.9462  42.2916 0011384 185.3596 174.7005 15.49326048499702"
      },
      "geometry": {
        "type": "Point",
        "coordinates": [
          -127.28367240165781,
          -9.609752260555268
        ]
      }
    }
  ]
}